#dP2023 11 26 12  0  0.00000000      96 __u+U IGS20 EXT  IAC
## 2290  43200.00000000   900.00000000 60274 0.5000000000000
+  118   C06C07C08C09C10C11C12C13C14C16C19C20C21C22C23C24C25
+        C26C27C28C29C30C32C33C34C35C36C37C38C39C40C41C42C43
+        C44C45C46E02E03E04E05E07E08E09E10E11E12E13E15E19E21
+        E24E25E26E27E30E31E33E34E36G01G02G03G04G05G06G07G08
+        G09G10G11G12G13G14G15G16G17G18G19G20G21G22G23G24G25
+        G26G27G28G29G30G31G32J02J03J04R01R02R03R04R05R07R08
+        R09R11R12R13R14R15R16R17R18R19R20R21R22R24R25R26  0
++         8  8 10 10  8 10  8 13  9  8  9  8  7  6  0  8  8
++         8  8 10 10  9  7  8  9  9  8  9 12 10 11  9  7  8
++         7  9  9  7  7  7  8  7  7  6  9  7  7  7  7  7  7
++         8  8  7  7  8  7  7  7  6  7  6  7  7  8  6  7  6
++         6  7  7  8  6  8  6  6  6  7  7  7  6  8  7  7  7
++         7  7  6  8  8  8  7  9 10  8  9  7  8  8  9  7  7
++         6  6  9  9  8  7  8  6  7  8 10  8  6  7  8  9  0
%c M  cc GPS ccc cccc cccc cccc cccc ccccc ccccc ccccc ccccc
%c cc cc ccc ccc cccc cccc cccc cccc ccccc ccccc ccccc ccccc
%f  0.0000000  0.000000000  0.00000000000  0.000000000000000
%f  0.0000000  0.000000000  0.00000000000  0.000000000000000
%i    0    0    0    0      0      0      0      0         0
%i    0    0    0    0      0      0      0      0         0
/* IAC                                ULTRA-RAPID PREDICTION
/* S/V CLOCKS ARE ALIGNED TO GNSS TIME                      
/* G:C1WC2W R:C1PC2P E:C1XC5X C:C2IC6I J:C1CC2S             
/* PCV:IGS20_2287 OL/AL:FES2004  NONE     YN ORB:CoN CLK:CoN
*  2023 11 26 18 30  0.00000000
PC06 -10516.855524  23021.193765 -33718.874611     41.692606
PC07 -14954.976219  38576.832828   7684.712615   -380.600525
PC08   1017.543710  34910.681363  23784.281689    217.198891
PC09    596.725759  24665.691856 -33722.903528   -140.052065
PC10  -7211.954254  38503.208242  15223.686490    -31.407015
PC11 -19059.044607  -9671.393798 -17855.772274    276.074095
PC12   1269.839463 -15629.729987 -23036.161602    845.475555
PC13   5202.130281  37543.282174  18935.752160    387.994782
PC14  -9914.750079 -14867.908025  21454.299174    862.259068
PC16 -13873.033883  21502.650235 -33328.918062   -195.457557
PC19  14885.187836   4830.368241 -23087.791112   -962.320780
PC20   4507.421593  21212.672021 -17546.088153     82.127871
PC21   9599.900878 -26199.843777    823.248916   -969.857577
PC22  17342.216810 -15259.813498 -15678.306841   -209.769610
PC23 -17526.936077   2978.430487 -21510.526408   -814.080038
PC24 -12864.579964 -23799.184175   6762.741742    634.877111
PC25 -21782.368935 -13499.566416 -11033.059441    264.568369
PC26   2065.720864 -19586.387855  19736.405774   -211.779830
PC27 -10938.946315  15842.079232  20190.158619    233.732297
PC28 -24937.606780   9436.324281   8240.228569    176.557550
PC29  25450.016005   3137.424081  11010.714898    206.614004
PC30   9530.912472  14043.344391  22145.495735     -9.137960
PC32  -9473.192179  26236.958564   -681.295532   -537.665317
PC33 -14893.389966  -4898.108245  23082.660127   -943.265238
PC34 -11171.789590 -13511.457950 -21721.443646    311.966437
PC35  24503.508238 -10430.897717  -8287.827825    494.103011
PC36  21371.865335  14728.138604  10285.576356   -117.702866
PC37  -3072.169220  19177.721655 -20043.935742   -901.172835
PC38  -5575.176976  30694.296595  28493.340152    120.239423
PC39 -17527.708059  21124.776668 -32044.909289     -5.824049
PC40 -22278.340338  35118.588914   6090.858954    -45.514626
PC41 -17430.949612  14559.612006  16259.881579   -871.774415
PC42  -3484.431492 -22257.937209  16517.781536   -491.663358
PC43 -25039.749746  -3838.505256 -11731.890191     49.879686
PC44  10463.502462 -16361.702083 -20036.999209    304.769959
PC45  17152.890207  -3400.979062  21746.137618    -49.710966
PC46  13634.476636  23683.063666  -5779.048485   -102.836503
PE02  12544.013662  22178.134795  15078.836117     81.704955
PE03  13878.772193  10631.016157 -23896.182996    -76.103433
PE04 -25337.568859   6264.824757  13965.137106   -266.481234
PE05  -5539.332968  21222.715409 -19881.549664   4694.720334
PE07  22119.545008 -19304.275160   3791.445278    -89.893797
PE08  25147.008009  -5861.352291 -14484.685556   -183.045726
PE09 -22178.109829  19247.958795  -3686.024037   -241.736991
PE10 -23524.129126   2068.427800  17841.406076   -581.846786
PE11 -15335.157906   9689.691766  23389.398369   3233.842011
PE12 -27337.713123  -5077.471926  10171.900260   -793.595432
PE13  15956.650085  -9164.414429 -23175.286713    -19.619218
PE15  27424.721517   5447.690841  -9704.119449    -71.606773
PE19 -11569.477461 -12386.822958  24266.871139  -1135.263738
PE21  -1483.187965 -29485.681413   2086.288912   -566.019513
PE24 -11389.581567  19559.145061 -19105.427783   -453.247019
PE25   1231.695142  29478.475097  -2449.146605     -2.845156
PE26  -5325.315731 -18463.370260 -22500.801161    292.391833
PE27  11033.837779 -19991.533433  18829.130154   -209.582116
PE30  16956.852141   1612.341202  24199.717744   -693.917013
PE31 -16894.720006  -1148.965365 -24271.961319    -10.673631
PE33 -22277.862997 -16848.984032  -9770.611397      3.105480
PE34  22703.294555  16610.834082   9234.385668    -80.102770
PE36   4653.650172  18191.568588  22890.015508   -149.475418
PG01 -21112.585630 -15041.297403  -6913.804810    163.350735
PG02 -18061.454257 -15134.247710 -11947.583100   -523.711354
PG03 -11725.552717 -18695.317711  14711.649803     12.499373
PG04 -14892.608405  -7386.646926  20749.901206    223.590605
PG05   6100.747261  25610.618403  -3295.590511   -151.872708
PG06 -11647.644669  10263.070707  21639.200994    495.268877
PG07 -24828.584721  -4520.884396  -8535.738734      3.277033
PG08  -7368.950411 -13610.680962 -21637.818568   -154.003494
PG09 -21673.685174   3172.620101  14975.251597      8.761415
PG10  11295.347161 -14321.631038 -18990.085109    -62.942069
PG11    439.067249  16437.661240  20890.865878   -476.606200
PG12  10081.334142  20319.659596  13599.940817   -451.190675
PG13  -4099.104771  17444.089974 -19734.626199    599.459290
PG14 -13703.599734  10548.816980 -20090.324572    254.313518
PG15   9300.794001  13212.462395 -21553.791460    101.022812
PG16    807.416299 -26220.837473   1674.797187   -415.097511
PG17 -23029.662284  13211.613431  -1643.520627    722.819781
PG18  24100.625985   3211.029161 -10894.249416   -490.159275
PG19 -19650.611940  16296.730759   6445.527130    404.311630
PG20   -354.409182  24774.703347   9863.767903    399.645098
PG21 -15785.884325 -16042.140101 -14296.112878    143.219606
PG22 -10870.079211  18051.575019 -15897.911941     76.743622
PG23  14891.318118   -562.900991 -21978.505834    105.605987
PG24  18400.963344  15638.476480 -11917.510784   -380.290380
PG25  15206.608458   8343.921189  19861.060389    479.069217
PG26   4671.431625 -23152.931359  11645.687983    213.840505
PG27   6559.225891 -19355.700375 -16989.117038    -75.272077
PG28  13500.963505  -9979.836930  20556.800172    -55.281442
PG29  21599.473799   -888.166901  15456.271412   -610.103173
PG30 -20085.960417   4474.634709 -16813.173941   -464.037618
PG31   5439.797261 -14290.084807  21498.143945   -226.089211
PG32  20739.467522 -16370.416214   1283.690264   -590.159471
PJ02 -21271.855813  29394.576177 -16735.741021     -0.303026
PJ03 -28651.990273  23670.404597  25126.245715     -9.649129
PJ04 -30557.075667  28102.220450  13308.626297     73.034224
PR01  15839.313649 -16197.242219 -11732.560969     70.746053
PR02  10709.539441 -22318.150204   6035.299201    -22.317658
PR03  -1198.240002 -15919.805016  19912.281066     89.768293
PR04 -11815.826368   -916.158735  22614.215112    212.734552
PR05 -16377.850949  14528.999229  13122.956977    122.884481
PR07   1669.596798  15413.503211 -20239.360027     70.026494
PR08  11969.925633    716.499179 -22454.139089    -73.415118
PR09   1560.236029  19174.412479 -16691.193992    155.407378
PR11  15667.588115  14193.456656  14270.628044   -216.140847
PR12  10190.144728  -4335.339299  23000.373592     33.850548
PR13     28.252616 -17806.588131  18244.831580    -41.708348
PR14 -11933.697857 -22527.591111   1115.874024     25.618289
PR15 -15581.782630 -13163.536290 -15303.056335     84.471044
PR16 -10193.285902   4002.650393 -23033.037009     20.999952
PR17 -11952.537421  -9697.926088 -20310.573822     38.361436
PR18 -23941.105742  -4528.979826  -7603.165202    113.918367
PR19 -24317.367375   1536.355849   7542.647212   -256.078167
PR20  -8633.124377   9237.691055  22176.224290   -104.175203
PR21  12573.862939   9603.132048  20026.120719    -56.407243
PR22  24117.967080   4981.337203   6660.372058     95.416446
PR24   7651.121564 -10120.489034 -22107.727805    -33.644633
PR25  11592.722440  10476.006012  20180.348194     -3.614217
PR26  11689.435267   1244.751480 -22623.212472    -14.976068
EOF
